CCSDS_OMM_VERS = 2.0
CREATION_DATE  = 
ORIGINATOR     = 

OBJECT_NAME    = STARLINK-37062
OBJECT_ID      = 2026-042U
CENTER_NAME    = EARTH
REF_FRAME      = TEME
TIME_SYSTEM    = UTC
MEAN_ELEMENT_THEORY = SGP/SGP4

EPOCH          = 2026-03-30T14:36:13.935168
MEAN_MOTION    = 15.80065446
ECCENTRICITY   = .00006312
INCLINATION    = 53.1575
RA_OF_ASC_NODE = 89.7826
ARG_OF_PERICENTER = 4.2112
MEAN_ANOMALY   = 355.8916

EPHEMERIS_TYPE = 0
CLASSIFICATION_TYPE = U
NORAD_CAT_ID   = 68087
ELEMENT_SET_NO = 999
REV_AT_EPOCH   = 539
BSTAR          = -.33771425E-2
MEAN_MOTION_DOT = -.600069E-2
MEAN_MOTION_DDOT = 0

CCSDS_OMM_VERS = 2.0
CREATION_DATE  = 
ORIGINATOR     = 

OBJECT_NAME    = STARLINK-37059
OBJECT_ID      = 2026-042V
CENTER_NAME    = EARTH
REF_FRAME      = TEME
TIME_SYSTEM    = UTC
MEAN_ELEMENT_THEORY = SGP/SGP4

EPOCH          = 2026-03-30T14:00:03.000384
MEAN_MOTION    = 15.75261010
ECCENTRICITY   = .00011422
INCLINATION    = 53.1587
RA_OF_ASC_NODE = 89.9960
ARG_OF_PERICENTER = 82.2758
MEAN_ANOMALY   = 91.7506

EPHEMERIS_TYPE = 0
CLASSIFICATION_TYPE = U
NORAD_CAT_ID   = 68088
ELEMENT_SET_NO = 999
REV_AT_EPOCH   = 541
BSTAR          = -.18139768E-3
MEAN_MOTION_DOT = -.28379E-3
MEAN_MOTION_DDOT = 0

CCSDS_OMM_VERS = 2.0
CREATION_DATE  = 
ORIGINATOR     = 

OBJECT_NAME    = STARLINK-37004
OBJECT_ID      = 2026-042W
CENTER_NAME    = EARTH
REF_FRAME      = TEME
TIME_SYSTEM    = UTC
MEAN_ELEMENT_THEORY = SGP/SGP4

EPOCH          = 2026-03-30T14:00:03.000384
MEAN_MOTION    = 15.75275847
ECCENTRICITY   = .00010192
INCLINATION    = 53.1582
RA_OF_ASC_NODE = 90.0489
ARG_OF_PERICENTER = 91.1810
MEAN_ANOMALY   = 57.0817

EPHEMERIS_TYPE = 0
CLASSIFICATION_TYPE = U
NORAD_CAT_ID   = 68089
ELEMENT_SET_NO = 999
REV_AT_EPOCH   = 541
BSTAR          = -.39126434E-3
MEAN_MOTION_DOT = -.60285E-3
MEAN_MOTION_DDOT = 0

CCSDS_OMM_VERS = 2.0
CREATION_DATE  = 
ORIGINATOR     = 

OBJECT_NAME    = STARLINK-36320
OBJECT_ID      = 2026-042X
CENTER_NAME    = EARTH
REF_FRAME      = TEME
TIME_SYSTEM    = UTC
MEAN_ELEMENT_THEORY = SGP/SGP4

EPOCH          = 2026-03-27T03:41:33.349344
MEAN_MOTION    = 15.75432358
ECCENTRICITY   = .00027632
INCLINATION    = 53.1593
RA_OF_ASC_NODE = 107.3571
ARG_OF_PERICENTER = 139.4736
MEAN_ANOMALY   = 220.6491

EPHEMERIS_TYPE = 0
CLASSIFICATION_TYPE = U
NORAD_CAT_ID   = 68090
ELEMENT_SET_NO = 999
REV_AT_EPOCH   = 484
BSTAR          = .2325439E-2
MEAN_MOTION_DOT = .375248E-2
MEAN_MOTION_DDOT = 0

CCSDS_OMM_VERS = 2.0
CREATION_DATE  = 
ORIGINATOR     = 

OBJECT_NAME    = STARLINK-36324
OBJECT_ID      = 2026-042Y
CENTER_NAME    = EARTH
REF_FRAME      = TEME
TIME_SYSTEM    = UTC
MEAN_ELEMENT_THEORY = SGP/SGP4

EPOCH          = 2026-03-30T06:24:51.320160
MEAN_MOTION    = 15.76263702
ECCENTRICITY   = .0004456
INCLINATION    = 53.1590
RA_OF_ASC_NODE = 91.9377
ARG_OF_PERICENTER = 203.1817
MEAN_ANOMALY   = 156.9003

EPHEMERIS_TYPE = 0
CLASSIFICATION_TYPE = U
NORAD_CAT_ID   = 68091
ELEMENT_SET_NO = 999
REV_AT_EPOCH   = 533
BSTAR          = .33954E-2
MEAN_MOTION_DOT = .582818E-2
MEAN_MOTION_DDOT = 0

CCSDS_OMM_VERS = 2.0
CREATION_DATE  = 
ORIGINATOR     = 

OBJECT_NAME    = STARLINK-36896
OBJECT_ID      = 2026-042Z
CENTER_NAME    = EARTH
REF_FRAME      = TEME
TIME_SYSTEM    = UTC
MEAN_ELEMENT_THEORY = SGP/SGP4

EPOCH          = 2026-03-30T08:00:01.000224
MEAN_MOTION    = 15.75209260
ECCENTRICITY   = .00010521
INCLINATION    = 53.1586
RA_OF_ASC_NODE = 91.5040
ARG_OF_PERICENTER = 107.7957
MEAN_ANOMALY   = 318.8066

EPHEMERIS_TYPE = 0
CLASSIFICATION_TYPE = U
NORAD_CAT_ID   = 68092
ELEMENT_SET_NO = 999
REV_AT_EPOCH   = 537
BSTAR          = .38312231E-3
MEAN_MOTION_DOT = .58418E-3
MEAN_MOTION_DDOT = 0

CCSDS_OMM_VERS = 2.0
CREATION_DATE  = 
ORIGINATOR     = 

OBJECT_NAME    = STARLINK-36251
OBJECT_ID      = 2026-042AA
CENTER_NAME    = EARTH
REF_FRAME      = TEME
TIME_SYSTEM    = UTC
MEAN_ELEMENT_THEORY = SGP/SGP4

EPOCH          = 2026-03-30T08:00:01.000224
MEAN_MOTION    = 15.80850915
ECCENTRICITY   = .00012686
INCLINATION    = 53.1570
RA_OF_ASC_NODE = 91.0992
ARG_OF_PERICENTER = 61.9230
MEAN_ANOMALY   = 201.9667

EPHEMERIS_TYPE = 0
CLASSIFICATION_TYPE = U
NORAD_CAT_ID   = 68093
ELEMENT_SET_NO = 999
REV_AT_EPOCH   = 536
BSTAR          = .28507249E-3
MEAN_MOTION_DOT = .55873E-3
MEAN_MOTION_DDOT = 0

CCSDS_OMM_VERS = 2.0
CREATION_DATE  = 
ORIGINATOR     = 

OBJECT_NAME    = STARLINK-36787
OBJECT_ID      = 2026-042AB
CENTER_NAME    = EARTH
REF_FRAME      = TEME
TIME_SYSTEM    = UTC
MEAN_ELEMENT_THEORY = SGP/SGP4

EPOCH          = 2026-03-30T10:52:52.699008
MEAN_MOTION    = 15.75309730
ECCENTRICITY   = .00013343
INCLINATION    = 53.1587
RA_OF_ASC_NODE = 90.9615
ARG_OF_PERICENTER = 81.0779
MEAN_ANOMALY   = 279.0392

EPHEMERIS_TYPE = 0
CLASSIFICATION_TYPE = U
NORAD_CAT_ID   = 68094
ELEMENT_SET_NO = 999
REV_AT_EPOCH   = 535
BSTAR          = .16087262E-2
MEAN_MOTION_DOT = .254299E-2
MEAN_MOTION_DDOT = 0

CCSDS_OMM_VERS = 2.0
CREATION_DATE  = 
ORIGINATOR     = 

OBJECT_NAME    = STARLINK-36790
OBJECT_ID      = 2026-042AC
CENTER_NAME    = EARTH
REF_FRAME      = TEME
TIME_SYSTEM    = UTC
MEAN_ELEMENT_THEORY = SGP/SGP4

EPOCH          = 2026-03-30T02:49:54.141600
MEAN_MOTION    = 15.75525520
ECCENTRICITY   = .00035593
INCLINATION    = 53.1589
RA_OF_ASC_NODE = 92.4188
ARG_OF_PERICENTER = 134.4676
MEAN_ANOMALY   = 225.6636

EPHEMERIS_TYPE = 0
CLASSIFICATION_TYPE = U
NORAD_CAT_ID   = 68095
ELEMENT_SET_NO = 999
REV_AT_EPOCH   = 530
BSTAR          = -.42899541E-2
MEAN_MOTION_DOT = -.620495E-2
MEAN_MOTION_DDOT = 0

CCSDS_OMM_VERS = 2.0
CREATION_DATE  = 
ORIGINATOR     = 

OBJECT_NAME    = STARLINK-36328
OBJECT_ID      = 2026-042AD
CENTER_NAME    = EARTH
REF_FRAME      = TEME
TIME_SYSTEM    = UTC
MEAN_ELEMENT_THEORY = SGP/SGP4

EPOCH          = 2026-03-30T14:00:03.000384
MEAN_MOTION    = 15.75256258
ECCENTRICITY   = .00012567
INCLINATION    = 53.1589
RA_OF_ASC_NODE = 89.9457
ARG_OF_PERICENTER = 107.9302
MEAN_ANOMALY   = 89.9851

EPHEMERIS_TYPE = 0
CLASSIFICATION_TYPE = U
NORAD_CAT_ID   = 68096
ELEMENT_SET_NO = 999
REV_AT_EPOCH   = 540
BSTAR          = -.79758064E-4
MEAN_MOTION_DOT = -.12856E-3
MEAN_MOTION_DDOT = 0

CCSDS_OMM_VERS = 2.0
CREATION_DATE  = 
ORIGINATOR     = 

OBJECT_NAME    = STARLINK-36853
OBJECT_ID      = 2026-042AE
CENTER_NAME    = EARTH
REF_FRAME      = TEME
TIME_SYSTEM    = UTC
MEAN_ELEMENT_THEORY = SGP/SGP4

EPOCH          = 2026-03-28T13:54:14.999328
MEAN_MOTION    = 15.81023297
ECCENTRICITY   = .00015476
INCLINATION    = 53.1585
RA_OF_ASC_NODE = 99.8798
ARG_OF_PERICENTER = 92.2219
MEAN_ANOMALY   = 267.8981

EPHEMERIS_TYPE = 0
CLASSIFICATION_TYPE = U
NORAD_CAT_ID   = 68097
ELEMENT_SET_NO = 999
REV_AT_EPOCH   = 506
BSTAR          = .19382612E-2
MEAN_MOTION_DOT = .40303E-2
MEAN_MOTION_DDOT = 0

CCSDS_OMM_VERS = 2.0
CREATION_DATE  = 
ORIGINATOR     = 

OBJECT_NAME    = GLOBAL-34
OBJECT_ID      = 2026-043A
CENTER_NAME    = EARTH
REF_FRAME      = TEME
TIME_SYSTEM    = UTC
MEAN_ELEMENT_THEORY = SGP/SGP4

EPOCH          = 2026-03-30T00:21:54.932832
MEAN_MOTION    = 15.31905044
ECCENTRICITY   = .00036871
INCLINATION    = 42.0222
RA_OF_ASC_NODE = 318.1532
ARG_OF_PERICENTER = 67.6458
MEAN_ANOMALY   = 292.4770

EPHEMERIS_TYPE = 0
CLASSIFICATION_TYPE = U
NORAD_CAT_ID   = 68098
ELEMENT_SET_NO = 999
REV_AT_EPOCH   = 368
BSTAR          = .53140528E-3
MEAN_MOTION_DOT = .16512E-3
MEAN_MOTION_DDOT = 0

